FENGYUN 1C DEB          
1 31160U 99025BHN 17344.19274303  .00000065  00000-0  76537-4 0  9997
2 31160  99.3112 329.4810 0058389 339.2245  20.6545 13.98724067287079
